[{"OBJECT_NAME":"SITRO-AIS 8 (ANOKHIN)","OBJECT_ID":"2023-091AD","EPOCH":"2026-03-09T23:44:40.058592","MEAN_MOTION":15.29359179,"ECCENTRICITY":0.0012509,"INCLINATION":97.5169,"RA_OF_ASC_NODE":133.2823,"ARG_OF_PERICENTER":92.0171,"MEAN_ANOMALY":268.2501,"EPHEMERIS_TYPE":0,"CLASSIFICATION_TYPE":"U","NORAD_CAT_ID":57193,"ELEMENT_SET_NO":999,"REV_AT_EPOCH":14927,"BSTAR":0.00064982524,"MEAN_MOTION_DOT":0.00018494,"MEAN_MOTION_DDOT":0},{"OBJECT_NAME":"STARLINK-32049","OBJECT_ID":"2024-124S","EPOCH":"2026-03-09T21:21:00.490464","MEAN_MOTION":15.30174808,"ECCENTRICITY":0.00011359,"INCLINATION":53.1626,"RA_OF_ASC_NODE":321.7543,"ARG_OF_PERICENTER":84.9069,"MEAN_ANOMALY":275.2062,"EPHEMERIS_TYPE":0,"CLASSIFICATION_TYPE":"U","NORAD_CAT_ID":60199,"ELEMENT_SET_NO":999,"REV_AT_EPOCH":9555,"BSTAR":2.7650758e-5,"MEAN_MOTION_DOT":4.59e-6,"MEAN_MOTION_DDOT":0}]
